GLOBALSTAR M069         
1 31573U 07020C   26198.00609990 -.00000112  00000+0 -17563-3 0  9997
2 31573  52.0008 167.7262 0001608 214.4609 188.0644 12.23472235882457
GLOBALSTAR M072         
1 31574U 07020D   26197.93665931 -.00000076  00000+0  11129-3 0  9996
2 31574  51.9950  21.0442 0001655  38.9527 127.4998 11.91658849878527
GLOBALSTAR M066         
1 32265U 07048C   26197.56939036 -.00000046  00000+0  40679-3 0  9992
2 32265  51.9609 333.5655 0005586 104.4817 336.2278 12.30389593863842
GLOBALSTAR M079         
1 37188U 10054A   26197.67580372 -.00000109  00000+0 -28828-4 0  9993
2 37188  52.0055  18.9023 0001127  80.3566 358.4650 12.62266414726277
GLOBALSTAR M074         
1 37189U 10054B   26197.70268516 -.00000105  00000+0 -92775-5 0  9990
2 37189  52.0033  18.0813 0000866  94.8333 346.1543 12.62262050726887
GLOBALSTAR M076         
1 37190U 10054C   26197.90597634 -.00000088  00000+0  85623-4 0  9992
2 37190  52.0046  17.6683 0001101  94.5452  70.5836 12.62262469726624
GLOBALSTAR M077         
1 37191U 10054D   26198.19777796 -.00000103  00000+0 -46617-3 0  9992
2 37191  51.9959 103.1240 0002227 228.9838 299.4155 11.67547328724647
GLOBALSTAR M075         
1 37192U 10054E   26198.07724781 -.00000091  00000+0  73278-4 0  9995
2 37192  51.9955  59.1841 0000774  67.3811  96.9658 12.62267872725718
GLOBALSTAR M073         
1 37193U 10054F   26197.58424689 -.00000101  00000+0  14331-4 0  9992
2 37193  52.0082 334.8088 0001049  98.2466 343.0539 12.62266918727641
GLOBALSTAR M083         
1 37739U 11033A   26198.21830751 -.00000075  00000+0  16115-3 0  9999
2 37739  51.9862 281.0676 0000727 108.7385 276.5000 12.62264256696748
GLOBALSTAR M088         
1 37740U 11033B   26198.03732405 -.00000120  00000+0 -90725-4 0  9990
2 37740  52.0189 188.1167 0000059  65.2658 335.8803 12.62269488692269
GLOBALSTAR M091         
1 37741U 11033C   26197.89010472 -.00000113  00000+0 -53614-4 0  9995
2 37741  51.9982 151.4860 0000467  27.3782   5.0326 12.62264235693039
GLOBALSTAR M085         
1 37742U 11033D   26198.22300494 -.00000084  00000+0  11122-3 0  9993
2 37742  52.0125 101.7911 0000825  44.3932 121.5115 12.62264379693589
GLOBALSTAR M081         
1 37743U 11033E   26198.16672904 -.00000092  00000+0  67153-4 0  9990
2 37743  51.9956 104.3642 0000708  57.1935  92.7194 12.62265292693722
GLOBALSTAR M089         
1 37744U 11033F   26198.05087211 -.00000093  00000+0  62280-4 0  9997
2 37744  51.9937  58.8701 0000702  91.0766  73.2268 12.62267575694558
GLOBALSTAR M084         
1 38040U 11080A   26198.18888454 -.00000094  00000+0  56103-4 0  9999
2 38040  52.0021 285.9486 0000765 133.4754 238.0687 12.62263543672557
GLOBALSTAR M080         
1 38041U 11080B   26197.46284883 -.00000079  00000+0  13994-3 0  9999
2 38041  52.0068 289.8875 0000293  81.0928 359.4146 12.62257497672583
GLOBALSTAR M082         
1 38042U 11080C   26198.09795037 -.00000083  00000+0  11451-3 0  9999
2 38042  52.0060 243.4583 0000198  78.9877 298.8883 12.62264344673371
GLOBALSTAR M092         
1 38043U 11080D   26197.61078683 -.00000092  00000+0  67119-4 0  9991
2 38043  52.0105 335.3381 0000772 105.8731 336.5591 12.62267797671768
GLOBALSTAR M090         
1 38044U 11080E   26198.12809627 -.00000079  00000+0  13632-3 0  9994
2 38044  52.0103 237.3317 0000414  89.1139 304.6303 12.62269628673490
GLOBALSTAR M086         
1 38045U 11080F   26198.06607035 -.00000094  00000+0  54639-4 0  9997
2 38045  51.9875 237.4002 0001479 114.4094 261.1789 12.62287855673432
GLOBALSTAR M097         
1 39072U 13005A   26197.30261826 -.00000124  00000+0 -11186-3 0  9991
2 39072  52.0028 154.7050 0000469  41.0496 319.0406 12.62271360620589
GLOBALSTAR M093         
1 39073U 13005B   26197.59259324 -.00000112  00000+0 -45422-4 0  9991
2 39073  52.0090 147.1804 0000691  46.4566 313.6358 12.62266331620573
GLOBALSTAR M094         
1 39074U 13005C   26197.98837082 -.00000092  00000+0  65679-4 0  9990
2 39074  51.9971  60.0636 0001024  65.3700 294.7273 12.62264163622238
GLOBALSTAR M096         
1 39075U 13005D   26198.16026490 -.00000087  00000+0  91513-4 0  9995
2 39075  52.0072 108.3649 0000785  46.0016 314.0916 12.62265725621179
GLOBALSTAR M078         
1 39076U 13005E   26198.13339824 -.00000124  00000+0 -11490-3 0  9999
2 39076  51.9845 192.4158 0000876 343.6421  16.4418 12.62260140619793
GLOBALSTAR M095         
1 39077U 13005F   26198.00170557 -.00000124  00000+0 -11568-3 0  9998
2 39077  52.0053 190.4626 0000502  15.9814 344.1068 12.62264118619630
GLOBALSTAR M087         
1 52888U 22064A   26197.77725823 -.00000090  00000+0  75185-4 0  9990
2 52888  52.0017 332.3678 0000904  86.2916 273.8054 12.62269388194870
